QIANFAN-49              
1 62250U 24232P   25360.61624528  .00000072  00000+0  93273-4 0  9994
2 62250  89.0013  39.8362 0015391 148.9653 211.2410 13.50981250 69712
QIANFAN-50              
1 62251U 24232Q   25360.56686639  .00000072  00000+0  92498-4 0  9998
2 62251  89.0019  39.8500 0017019 150.9669 209.2433 13.50978076 69738
QIANFAN-51              
1 62252U 24232R   25360.55041857  .00000070  00000+0  90270-4 0  9999
2 62252  89.0013  39.8447 0014408 153.3853 206.8041 13.50980754 69727
QIANFAN-52              
1 62253U 24232S   25360.57924628  .00000060  00000+0  74445-4 0  9993
2 62253  89.0008  39.7148 0016617 146.9732 213.2461 13.50978881 69813
QIANFAN-53              
1 62254U 24232T   25360.55863369  .00000071  00000+0  90935-4 0  9990
2 62254  89.0016  39.8225 0015467 147.6407 212.5696 13.50981311 69778
QIANFAN-54              
1 62255U 24232U   25360.59977838  .00000076  00000+0  99611-4 0  9997
2 62255  89.0007  39.4955 0002732 148.7803 211.3511 13.50981631101289
QIANFAN-55              
1 62785U 25016A   25360.62576214  .00000168  00000+0  24217-3 0  9994
2 62785  88.9784 101.7781 0015664 310.4744  49.5041 13.50979867 49061
QIANFAN-56              
1 62786U 25016B   25360.64225840  .00000181  00000+0  26171-3 0  9999
2 62786  88.9757 101.6092 0014337 313.2534  46.7419 13.50982790 49113
